QIANFAN-25              
1 61558U 24185G   25220.09835687  .00000312  00000+0  18267-3 0  9994
2 61558  88.9774  92.5425 0007139   1.0874 359.0322 14.05756195 51729
QIANFAN-26              
1 61559U 24185H   25220.01654085  .00000226  00000+0  21307-3 0  9991
2 61559  88.9790  93.4461 0007423  46.5844 313.5939 13.77722868 51249
QIANFAN-27              
1 61560U 24185J   25220.05740114  .00000422  00000+0  16704-3 0  9999
2 61560  88.9780  91.8152 0008289   2.2482 357.8747 14.27127655 52098
QIANFAN-28              
1 61561U 24185K   25220.09500235  .00000624  00000+0  24740-3 0  9995
2 61561  88.9797  91.8046 0007375   4.8309 355.2956 14.27690632 52106
QIANFAN-29              
1 61562U 24185L   25220.01493281  .00000170  00000+0  24531-3 0  9994
2 61562  88.9785  94.4216 0012040  61.4247 298.8114 13.50957230 50681
QIANFAN-30              
1 61563U 24185M   25220.04204746  .00000146  00000+0  21174-3 0  9997
2 61563  88.9789  93.8969 0009281  49.9748 310.2215 13.49929079 50975
QIANFAN-31              
1 61564U 24185N   25220.01704715  .00000133  00000+0  16685-3 0  9993
2 61564  88.9772  93.9022 0008947  48.6118 311.5804 13.57905965 50968
QIANFAN-32              
1 61565U 24185P   25220.08084036  .00000081  00000+0  10691-3 0  9991
2 61565  88.9833  93.9888 0011473  70.1258 290.1128 13.50683826 50952
